{"type": "FeatureCollection", "features": [ {"type": "Feature", "properties": {"norad_id": 40115, "name": "WORLDVIEW-3 (WV-3)", "group": "resource", "lat": 79.64571757559752, "lon": -80.23284599156614, "alt_km": 606.0910512122709, "timestamp": "2025-12-04T05:42:43.035008+00:00", "meta": {"OBJECT_NAME": "WORLDVIEW-3 (WV-3)", "OBJECT_ID": "2014-048A", "EPOCH": "2025-12-03T21:11:40.574400", "MEAN_MOTION": 14.85476881, "ECCENTRICITY": 0.00041112, "INCLINATION": 97.8626, "RA_OF_ASC_NODE": 50.2746, "ARG_OF_PERICENTER": 216.6115, "MEAN_ANOMALY": 143.482, "EPHEMERIS_TYPE": 0, "CLASSIFICATION_TYPE": "U", "NORAD_CAT_ID": 40115, "ELEMENT_SET_NO": 999, "REV_AT_EPOCH": 61292, "BSTAR": 0.00025704872, "MEAN_MOTION_DOT": 2.164e-05, "MEAN_MOTION_DDOT": 0}, "tle": {"line1": "1 40115U 14048A   25337.88310850  .00002164  00000+0  25705-3 0  9995", "line2": "2 40115  97.8626  50.2746 0004111 216.6115 143.4820 14.85476881612928"}}, "geometry": {"type": "Point", "coordinates": [-80.23284599156614, 79.64571757559752]}}, {"type": "Feature", "properties": {"norad_id": 40118, "name": "GAOFEN-2", "group": "resource", "lat": 62.49560861913571, "lon": 21.639760908021398, "alt_km": 619.7648241961806, "timestamp": "2025-12-04T05:42:43.035018+00:00", "meta": {"OBJECT_NAME": "GAOFEN-2", "OBJECT_ID": "2014-049A", "EPOCH": "2025-12-03T22:56:15.718272", "MEAN_MOTION": 14.80584377, "ECCENTRICITY": 0.00082328, "INCLINATION": 98.0397, "RA_OF_ASC_NODE": 37.1085, "ARG_OF_PERICENTER": 138.2448, "MEAN_ANOMALY": 221.9393, "EPHEMERIS_TYPE": 0, "CLASSIFICATION_TYPE": "U", "NORAD_CAT_ID": 40118, "ELEMENT_SET_NO": 999, "REV_AT_EPOCH": 61034, "BSTAR": 0.0002005687, "MEAN_MOTION_DOT": 1.485e-05, "MEAN_MOTION_DDOT": 0}, "tle": {"line1": "1 40118U 14049A   25337.95573748  .00001485  00000+0  20057-3 0  9994", "line2": "2 40118  98.0397  37.1085 0008232 138.2448 221.9393 14.80584377610341"}}, "geometry": {"type": "Point", "coordinates": [21.639760908021398, 62.49560861913571]}}, {"type": "Feature", "properties": {"norad_id": 40143, "name": "YAOGAN-21", "group": "resource", "lat": 25.96331867188284, "lon": -154.56069260706707, "alt_km": 494.007272826997, "timestamp": "2025-12-04T05:42:43.035028+00:00", "meta": {"OBJECT_NAME": "YAOGAN-21", "OBJECT_ID": "2014-053A", "EPOCH": "2025-12-03T22:44:06.466848", "MEAN_MOTION": 15.23504825, "ECCENTRICITY": 0.00101998, "INCLINATION": 97.1772, "RA_OF_ASC_NODE": 21.6433, "ARG_OF_PERICENTER": 68.432, "MEAN_ANOMALY": 291.8003, "EPHEMERIS_TYPE": 0, "CLASSIFICATION_TYPE": "U", "NORAD_CAT_ID": 40143, "ELEMENT_SET_NO": 999, "REV_AT_EPOCH": 62520, "BSTAR": 0.00063767311, "MEAN_MOTION_DOT": 0.00015191, "MEAN_MOTION_DDOT": 0}, "tle": {"line1": "1 40143U 14053A   25337.94729707  .00015191  00000+0  63767-3 0  9998", "line2": "2 40143  97.1772  21.6433 0010199  68.4320 291.8003 15.23504825625202"}}, "geometry": {"type": "Point", "coordinates": [-154.56069260706707, 25.96331867188284]}}, {"type": "Feature", "properties": {"norad_id": 40275, "name": "YAOGAN-22", "group": "resource", "lat": -45.13309281153289, "lon": -69.45621735649453, "alt_km": 1205.1408708704566, "timestamp": "2025-12-04T05:42:43.035038+00:00", "meta": {"OBJECT_NAME": "YAOGAN-22", "OBJECT_ID": "2014-063A", "EPOCH": "2025-12-03T23:05:23.791488", "MEAN_MOTION": 13.15522462, "ECCENTRICITY": 0.00058831, "INCLINATION": 100.7418, "RA_OF_ASC_NODE": 121.2578, "ARG_OF_PERICENTER": 269.4316, "MEAN_ANOMALY": 90.6121, "EPHEMERIS_TYPE": 0, "CLASSIFICATION_TYPE": "U", "NORAD_CAT_ID": 40275, "ELEMENT_SET_NO": 999, "REV_AT_EPOCH": 53414, "BSTAR": 0.0001631289, "MEAN_MOTION_DOT": 1.5e-07, "MEAN_MOTION_DDOT": 0}, "tle": {"line1": "1 40275U 14063A   25337.96208092  .00000015  00000+0  16313-3 0  9990", "line2": "2 40275 100.7418 121.2578 0005883 269.4316  90.6121 13.15522462534149"}}, "geometry": {"type": "Point", "coordinates": [-69.45621735649453, -45.13309281153289]}}, {"type": "Feature", "properties": {"norad_id": 40298, "name": "ASNARO", "group": "resource", "lat": -28.944201724658967, "lon": 58.49782052274941, "alt_km": 517.721657721594, "timestamp": "2025-12-04T05:42:43.035048+00:00", "meta": {"OBJECT_NAME": "ASNARO", "OBJECT_ID": "2014-070A", "EPOCH": "2025-12-04T01:05:52.938240", "MEAN_MOTION": 15.19205311, "ECCENTRICITY": 0.0005153, "INCLINATION": 97.3669, "RA_OF_ASC_NODE": 54.2072, "ARG_OF_PERICENTER": 147.48, "MEAN_ANOMALY": 212.6753, "EPHEMERIS_TYPE": 0, "CLASSIFICATION_TYPE": "U", "NORAD_CAT_ID": 40298, "ELEMENT_SET_NO": 999, "REV_AT_EPOCH": 61437, "BSTAR": 0.00098587, "MEAN_MOTION_DOT": 0.00020733, "MEAN_MOTION_DDOT": 0}, "tle": {"line1": "1 40298U 14070A   25338.04575160  .00020733  00000+0  98587-3 0  9998", "line2": "2 40298  97.3669  54.2072 0005153 147.4800 212.6753 15.19205311614378"}}, "geometry": {"type": "Point", "coordinates": [58.49782052274941, -28.944201724658967]}}, {"type": "Feature", "properties": {"norad_id": 40310, "name": "YAOGAN-24", "group": "resource", "lat": -3.0570198370722816, "lon": -71.15064046932568, "alt_km": 635.3982960565108, "timestamp": "2025-12-04T05:42:43.035058+00:00", "meta": {"OBJECT_NAME": "YAOGAN-24", "OBJECT_ID": "2014-072A", "EPOCH": "2025-12-04T00:00:20.169216", "MEAN_MOTION": 14.76147906, "ECCENTRICITY": 0.00142909, "INCLINATION": 98.1218, "RA_OF_ASC_NODE": 109.0474, "ARG_OF_PERICENTER": 165.0865, "MEAN_ANOMALY": 195.0768, "EPHEMERIS_TYPE": 0, "CLASSIFICATION_TYPE": "U", "NORAD_CAT_ID": 40310, "ELEMENT_SET_NO": 999, "REV_AT_EPOCH": 59492, "BSTAR": 0.00027008168, "MEAN_MOTION_DOT": 1.816e-05, "MEAN_MOTION_DDOT": 0}, "tle": {"line1": "1 40310U 14072A   25338.00023344  .00001816  00000+0  27008-3 0  9994", "line2": "2 40310  98.1218 109.0474 0014290 165.0865 195.0768 14.76147906594921"}}, "geometry": {"type": "Point", "coordinates": [-71.15064046932568, -3.0570198370722816]}}, {"type": "Feature", "properties": {"norad_id": 40336, "name": "CBERS 4", "group": "resource", "lat": 80.59448450368035, "lon": -25.672429451951803, "alt_km": 765.072500071833, "timestamp": "2025-12-04T05:42:43.035069+00:00", "meta": {"OBJECT_NAME": "CBERS 4", "OBJECT_ID": "2014-079A", "EPOCH": "2025-12-04T00:17:45.965184", "MEAN_MOTION": 14.35528976, "ECCENTRICITY": 0.00014752, "INCLINATION": 98.3322, "RA_OF_ASC_NODE": 36.3274, "ARG_OF_PERICENTER": 126.1377, "MEAN_ANOMALY": 233.9945, "EPHEMERIS_TYPE": 0, "CLASSIFICATION_TYPE": "U", "NORAD_CAT_ID": 40336, "ELEMENT_SET_NO": 999, "REV_AT_EPOCH": 57595, "BSTAR": 0.00012879181, "MEAN_MOTION_DOT": 3.29e-06, "MEAN_MOTION_DDOT": 0}, "tle": {"line1": "1 40336U 14079A   25338.01233756  .00000329  00000+0  12879-3 0  9998", "line2": "2 40336  98.3322  36.3274 0001475 126.1377 233.9945 14.35528976575950"}}, "geometry": {"type": "Point", "coordinates": [-25.672429451951803, 80.59448450368035]}}, {"type": "Feature", "properties": {"norad_id": 40362, "name": "YAOGAN-26", "group": "resource", "lat": 63.400729924293024, "lon": 173.5555364972101, "alt_km": 441.14774982431027, "timestamp": "2025-12-04T05:42:43.035079+00:00", "meta": {"OBJECT_NAME": "YAOGAN-26", "OBJECT_ID": "2014-088A", "EPOCH": "2025-12-04T00:31:47.146080", "MEAN_MOTION": 15.3882383, "ECCENTRICITY": 0.0007279, "INCLINATION": 97.0636, "RA_OF_ASC_NODE": 339.0102, "ARG_OF_PERICENTER": 53.4318, "MEAN_ANOMALY": 306.7598, "EPHEMERIS_TYPE": 0, "CLASSIFICATION_TYPE": "U", "NORAD_CAT_ID": 40362, "ELEMENT_SET_NO": 999, "REV_AT_EPOCH": 60760, "BSTAR": 0.00088066218, "MEAN_MOTION_DOT": 0.00033867, "MEAN_MOTION_DDOT": 0}, "tle": {"line1": "1 40362U 14088A   25338.02207345  .00033867  00000+0  88066-3 0  9997", "line2": "2 40362  97.0636 339.0102 0007279  53.4318 306.7598 15.38823830607603"}}, "geometry": {"type": "Point", "coordinates": [173.5555364972101, 63.400729924293024]}}, {"type": "Feature", "properties": {"norad_id": 40376, "name": "SMAP", "group": "resource", "lat": 21.397215163320947, "lon": 166.2951229860509, "alt_km": 682.0377981501815, "timestamp": "2025-12-04T05:42:43.035089+00:00", "meta": {"OBJECT_NAME": "SMAP", "OBJECT_ID": "2015-003A", "EPOCH": "2025-12-03T22:25:36.684768", "MEAN_MOTION": 14.63327655, "ECCENTRICITY": 0.00012088, "INCLINATION": 98.1291, "RA_OF_ASC_NODE": 342.7853, "ARG_OF_PERICENTER": 86.8011, "MEAN_ANOMALY": 273.333, "EPHEMERIS_TYPE": 0, "CLASSIFICATION_TYPE": "U", "NORAD_CAT_ID": 40376, "ELEMENT_SET_NO": 999, "REV_AT_EPOCH": 57906, "BSTAR": 0.00021709452, "MEAN_MOTION_DOT": 1.074e-05, "MEAN_MOTION_DDOT": 0}, "tle": {"line1": "1 40376U 15003A   25337.93445237  .00001074  00000+0  21709-3 0  9999", "line2": "2 40376  98.1291 342.7853 0001208  86.8011 273.3330 14.63327655579069"}}, "geometry": {"type": "Point", "coordinates": [166.2951229860509, 21.397215163320947]}}, {"type": "Feature", "properties": {"norad_id": 40536, "name": "KOMPSAT-3A", "group": "resource", "lat": -81.40541863257845, "lon": 15.313063942793638, "alt_km": 444.86860856373914, "timestamp": "2025-12-04T05:42:43.035099+00:00", "meta": {"OBJECT_NAME": "KOMPSAT-3A", "OBJECT_ID": "2015-014A", "EPOCH": "2025-12-03T22:18:18.878688", "MEAN_MOTION": 15.43455776, "ECCENTRICITY": 0.00038267, "INCLINATION": 97.6773, "RA_OF_ASC_NODE": 311.7933, "ARG_OF_PERICENTER": 145.6845, "MEAN_ANOMALY": 214.465, "EPHEMERIS_TYPE": 0, "CLASSIFICATION_TYPE": "U", "NORAD_CAT_ID": 40536, "ELEMENT_SET_NO": 999, "REV_AT_EPOCH": 59159, "BSTAR": 0.0007430824, "MEAN_MOTION_DOT": 0.00033268, "MEAN_MOTION_DDOT": 0}, "tle": {"line1": "1 40536U 15014A   25337.92938517  .00033268  00000+0  74308-3 0  9999", "line2": "2 40536  97.6773 311.7933 0003826 145.6845 214.4650 15.43455776591596"}}, "geometry": {"type": "Point", "coordinates": [15.313063942793638, -81.40541863257845]}}]}